ONEWEB-0558             
1 56059U 23043P   25332.16714230  .00000034  00000+0  51555-4 0  9997
2 56059  87.9203 284.0802 0002272  69.8355 290.3024 13.21826220131685
ONEWEB-0559             
1 56060U 23043Q   25332.15563773  .00000022  00000+0  22436-4 0  9995
2 56060  87.9204 284.0757 0002182  80.2394 279.8987 13.21826350131692
ONEWEB-0566             
1 56061U 23043R   25332.14903169 -.00000244  00000+0 -62247-3 0  9993
2 56061  87.9202 284.0747 0002229  75.5497 284.5885 13.21824568131670
ONEWEB-0568             
1 56062U 23043S   25332.07497497  .00000073  00000+0  15663-3 0  9996
2 56062  87.9037 268.8165 0001550  74.1822 285.9480 13.16594115132510
ONEWEB-0574             
1 56063U 23043T   25332.14246215  .00000095  00000+0  19882-3 0  9996
2 56063  87.9200 284.0643 0001849  85.4928 274.6417 13.21824789131712
ONEWEB-0575             
1 56064U 23043U   25331.84065477  .00000066  00000+0  13939-3 0  9997
2 56064  87.9034 268.8639 0001570  88.1124 272.0187 13.16594609132471
ONEWEB-0576             
1 56065U 23043V   25332.12561747 -.00002127  00000+0 -55985-2 0  9999
2 56065  87.9036 268.8071 0001686  81.1852 278.9470 13.16600553132503
ONEWEB-0577             
1 56066U 23043W   25332.05596941  .00000102  00000+0  23413-3 0  9997
2 56066  87.9037 268.8207 0001705 104.0182 256.1138 13.16593463132521
ONEWEB-0578             
1 56067U 23043X   25332.12930941  .00000113  00000+0  24197-3 0  9990
2 56067  87.9207 284.0768 0001635  77.1150 283.0166 13.21826952131673
ONEWEB-0579             
1 56068U 23043Y   25331.89233728  .00000063  00000+0  12059-3 0  9991
2 56068  87.9204 284.1113 0002129  80.9731 279.1644 13.21828315131652
ONEWEB-0581             
1 56069U 23043Z   25332.06231123  .00000162  00000+0  38968-3 0  9996
2 56069  87.9036 268.8334 0001873  90.9238 269.2107 13.16594571132493
ONEWEB-0609             
1 56070U 23043AA  25332.16424604 -.00000012  00000+0 -65399-4 0  9992
2 56070  87.8981 299.3303 0001902  80.3202 279.8143 13.15548276130007
ONEWEB-0613             
1 56071U 23043AB  25331.85526723 -.00000110  00000+0 -32544-3 0  9997
2 56071  87.8975 299.4048 0002159  81.1939 278.9435 13.15548353129962
ONEWEB-0630             
1 56072U 23043AC  25332.15473773  .00000030  00000+0  46837-4 0  9998
2 56072  87.8977 299.3163 0002156  81.2752 278.8622 13.15549024129999
ONEWEB-0632             
1 56073U 23043AD  25332.14997846  .00000014  00000+0  30417-5 0  9990
2 56073  87.8975 299.3358 0001920  89.0952 271.0399 13.15548588129990
ONEWEB-0633             
1 56074U 23043AE  25332.14364483  .00000175  00000+0  43103-3 0  9998
2 56074  87.8974 299.3002 0002206  75.9913 284.1462 13.15548102129971
ONEWEB-0634             
1 56075U 23043AF  25331.90121485  .00000161  00000+0  39351-3 0  9990
2 56075  87.8977 299.3974 0001747  73.1947 286.9375 13.15548151129932
ONEWEB-0635             
1 56076U 23043AG  25331.89645594  .00000190  00000+0  47024-3 0  9999
2 56076  87.8975 299.3529 0001879  91.2541 268.8805 13.15549772129964
ONEWEB-0636             
1 56077U 23043AH  25332.19276384  .00000034  00000+0  55377-4 0  9999
2 56077  87.8974 299.3115 0001856  89.9610 270.1733 13.15549798129987
ONEWEB-0637             
1 56078U 23043AJ  25332.18643311 -.00000043  00000+0 -14719-3 0  9993
2 56078  87.8978 299.3285 0001579  84.2827 275.8483 13.15549391130008
ONEWEB-0647             
1 56079U 23043AK  25332.18167448 -.00000033  00000+0 -12185-3 0  9990
2 56079  87.8971 299.3426 0001997  87.1407 272.9952 13.15547940129992
ONEWEB-0651             
1 56080U 23043AL  25331.87269123 -.00000054  00000+0 -17692-3 0  9991
2 56080  87.8972 299.3980 0001723  88.4944 271.6384 13.15549556131158
ONEWEB-0718             
1 56081U 23043AM  25332.17216310 -.00000165  00000+0 -47117-3 0  9994
2 56081  87.8979 299.3184 0001708  64.9827 295.1480 13.15547108130006
STARLINK-6109           
1 56094U 23046B   25332.07435970  .00000062  00000+0  19665-4 0  9997
2 56094  43.0047 351.3373 0000969 270.5507  89.5225 15.02532099146771
STARLINK-6090           
1 56095U 23046C   25332.14749438 -.00000709  00000+0 -37411-4 0  9992
2 56095  43.0050 351.0263 0001280 263.9561  96.1135 15.02540194146784
STARLINK-6089           
1 56096U 23046D   25332.07213794  .00000353  00000+0  41216-4 0  9997
2 56096  43.0057 351.3208 0001449 262.1443  97.9235 15.02534405146778
STARLINK-6077           
1 56097U 23046E   25331.60670661  .00000726  00000+0  68789-4 0  9994
2 56097  43.0047 301.7936 0001367 272.4822  87.5864 15.02536797147308
STARLINK-6088           
1 56098U 23046F   25332.14416659  .00000557  00000+0  56320-4 0  9990
2 56098  43.0072 351.0027 0001334 268.2832  91.7857 15.02535604146780
STARLINK-6076           
1 56100U 23046H   25332.12863223  .00000055  00000+0  19192-4 0  9994
2 56100  43.0062 350.8864 0001640 276.7943  83.2713 15.02531878146782
STARLINK-6095           
1 56101U 23046J   25332.12752448 -.00000962  00000+0 -56152-4 0  9997
2 56101  43.0067 350.8813 0001096 263.2631  96.8087 15.02541806146788
STARLINK-6075           
1 56102U 23046K   25332.05548881  .00000587  00000+0  58518-4 0  9993
2 56102  43.0034 351.1962 0001183 268.2421  91.8286 15.02534739146773
STARLINK-6096           
1 56103U 23046L   25332.05771757 -.00001560  00000+0 -10041-3 0  9996
2 56103  43.0071 351.2115 0001654 276.2550  83.8104 15.02537167146779
STARLINK-6062           
1 56104U 23046M   25332.12530132 -.00000680  00000+0 -35267-4 0  9995
2 56104  43.0067 350.8591 0001144 269.8751  90.1961 15.02542325146788
STARLINK-6066           
1 56105U 23046N   25332.04549836  .00001199  00000+0  10380-3 0  9990
2 56105  43.0059 351.1204 0001232 272.0890  87.9811 15.02533988146775
STARLINK-6030           
1 56107U 23046Q   25332.10642740  .00000201  00000+0  29960-4 0  9995
2 56107  43.0041 350.7143 0001088 267.9646  92.1071 15.02539642146786
STARLINK-6081           
1 56108U 23046R   25332.05438833 -.00003696  00000+0 -25875-3 0  9999
2 56108  43.0048 351.1861 0001245 271.9520  88.1179 15.02525565146779
STARLINK-6083           
1 56109U 23046S   25332.10975683 -.00000278  00000+0 -54822-5 0  9994
2 56109  43.0043 350.7417 0001321 274.1821  85.8870 15.02540269146782
STARLINK-6082           
1 56110U 23046T   25332.11530961  .00001014  00000+0  90151-4 0  9994
2 56110  43.0037 350.7845 0001222 270.2280  89.8423 15.02533595146780
STARLINK-6084           
1 56111U 23046U   25332.09533170  .00000489  00000+0  51311-4 0  9997
2 56111  43.0044 350.6288 0001342 270.3352  89.7337 15.02531449146782
STARLINK-6080           
1 56112U 23046V   25331.76848939  .00000263  00000+0  34537-4 0  9994
2 56112  43.0047 352.4765 0001364 268.0775  91.9911 15.02534196146733
STARLINK-6113           
1 56113U 23046W   25332.09089036  .00000313  00000+0  38266-4 0  9996
2 56113  43.0054 350.6007 0001372 270.4652  89.6033 15.02532407146788
STARLINK-6101           
1 56115U 23046Y   25332.08645308  .00000105  00000+0  22859-4 0  9997
2 56115  43.0053 350.5668 0001397 274.0832  85.9851 15.02531058146786
STARLINK-6114           
1 56116U 23046Z   25332.09755454  .00000077  00000+0  20744-4 0  9992
2 56116  43.0051 350.6503 0001344 272.1318  87.9370 15.02528942146780
STARLINK-6107           
1 56117U 23046AA  25332.07462012  .00000245  00000+0  33185-4 0  9996
2 56117  43.0057 338.3627 0001361 267.0085  93.0602 15.02532967146924
STARLINK-6091           
1 56119U 23046AC  25332.08460351 -.00002392  00000+0 -16201-3 0  9999
2 56119  43.0059 338.4362 0001378 265.8291  94.2394 15.02549491146929
STARLINK-6079           
1 56120U 23046AD  25332.09237900 -.00000421  00000+0 -16064-4 0  9993
2 56120  43.0054 338.4970 0001201 265.8738  94.1967 15.02538637146927
STARLINK-6092           
1 56121U 23046AE  25332.08793675 -.00001159  00000+0 -70720-4 0  9997
2 56121  43.0049 338.4611 0001062 263.9753  96.0969 15.02541768146927
STARLINK-6094           
1 56122U 23046AF  25332.09200475  .00000216  00000+0  31056-4 0  9990
2 56122  43.0050 350.6045 0001284 266.4560  93.6135 15.02528387146781
STARLINK-6115           
1 56123U 23046AH  25332.07573122  .00000557  00000+0  56316-4 0  9995
2 56123  43.0051 338.3685 0001659 277.2756  82.7898 15.02531119146927
STARLINK-6126           
1 56124U 23046AJ  25332.08904953  .00001847  00000+0  15183-3 0  9996
2 56124  43.0067 338.4682 0001328 269.5529  90.5161 15.02526447146926
STARLINK-6119           
1 56125U 23046AK  25332.07905947  .00000572  00000+0  57436-4 0  9992
2 56125  43.0044 338.3923 0001246 267.7844  92.2855 15.02533942146925
STARLINK-6124           
1 56126U 23046AL  25332.07239972  .00000796  00000+0  74011-4 0  9997
2 56126  43.0032 338.3377 0001089 269.8082  90.2636 15.02532506146928
STARLINK-6104           
1 56127U 23046AM  25332.06462914 -.00000153  00000+0  37340-5 0  9994
2 56127  43.0048 338.2811 0001157 269.4461  90.6249 15.02537092146920
STARLINK-6122           
1 56128U 23046AN  25332.08127994  .00000171  00000+0  27724-4 0  9996
2 56128  43.0036 338.4055 0001149 267.9885  92.0826 15.02533760146929
STARLINK-6121           
1 56129U 23046AP  25331.60366487 -.00016292  00000+0 -11919-2 0  9996
2 56129  43.0031 288.9519 0000962 300.4548  59.6200 15.02597276147456
STARLINK-6117           
1 56130U 23046AQ  25332.06906862  .00001016  00000+0  90237-4 0  9994
2 56130  43.0044 338.3194 0001222 272.4665  87.6037 15.02536717146922
STARLINK-6120           
1 56131U 23046AR  25332.05464284 -.00000432  00000+0 -16938-4 0  9990
2 56131  43.0054 338.2048 0001182 280.4521  79.6188 15.02540107146922
STARLINK-6071           
1 56132U 23046AS  25332.06574167 -.00004095  00000+0 -28819-3 0  9993
2 56132  43.0045 338.2898 0001347 273.8437  86.2251 15.02544012146925
STARLINK-5566           
1 56133U 23046AT  25332.04465226 -.00000037  00000+0  12313-4 0  9991
2 56133  43.0065 338.1278 0001281 267.7073  92.3622 15.02532345146920
